*******************************************************************************
Ephemeris / WWW_USER Mon Mar 10 06:51:39 2025 Pasadena, USA      / Horizons    
*******************************************************************************
Target body name: (2018 WV1)                      {source: JPL#17}
Center body name: Earth (399)                     {source: DE441}
Center-site name: Mauna Kea
*******************************************************************************
Start time      : A.D. 2018-Dec-06 03:52:00.0000 UT      
Stop  time      : A.D. 2018-Dec-06 16:33:00.0000 UT      
Step-size       : 1 minutes
*******************************************************************************
Target pole/equ : undefined
Target radii    : undefined                                                    
Center geodetic : 204.5278, 19.8260847, 4.21024   {E-lon(deg),Lat(deg),Alt(km)}
Center cylindric: 204.5278, 6006.35451, 2151.0229 {E-lon(deg),Dxy(km),Dz(km)}
Center pole/equ : ITRF93                          {East-longitude positive}
Center radii    : 6378.137, 6378.137, 6356.752 km {Equator_a, b, pole_c}       
Target primary  : Sun
Vis. interferer : MOON (R_eq= 1737.400) km        {source: DE441}
Rel. light bend : Sun                             {source: DE441}
Rel. lght bnd GM: 1.3271E+11 km^3/s^2                                          
Small-body perts: Yes                             {source: SB441-N16}
Atmos refraction: NO (AIRLESS)
RA format       : HMS
Time format     : CAL 
Calendar mode   : Mixed Julian/Gregorian
RTS-only print  : NO       
EOP file        : eop.250307.p250603                                           
EOP coverage    : DATA-BASED 1962-JAN-20 TO 2025-MAR-07. PREDICTS-> 2025-JUN-02
Units conversion: 1 au= 149597870.700 km, c= 299792.458 km/s, 1 day= 86400.0 s 
Table cut-offs 1: Elevation (-90.0deg=NO ),Airmass (>38.000=NO), Daylight (YES)
Table cut-offs 2: Solar elongation (  0.0,180.0=NO ),Local Hour Angle( 0.0=NO )
Table cut-offs 3: RA/DEC angular rate (     0.0=NO )                           
*******************************************************************************
Initial IAU76/J2000 heliocentric ecliptic osculating elements (au, days, deg.):
  EPOCH=  2458458.5 ! 2018-Dec-06.00 (TDB)         Residual RMS= .12928        
   EC= .06869100257422787  QR= .9715505345748198   TP= 2458416.866413563       
   OM= 248.5061090469913   W=  141.3742304527303   IN= 1.905403987972275       
  Equivalent ICRF heliocentric cartesian coordinates (au, au/d):
   X= 2.787163119783287E-01  Y= 8.719775267121872E-01  Z= 3.748421051204766E-01
  VX=-1.676682657337402E-02 VY= 5.516972965834891E-03 VZ= 1.749720915605096E-03
Asteroid physical parameters (km, seconds, rotational period in hours):        
   GM= n.a.                RAD= n.a.               ROTPER= n.a.                
   H= 30.3                 G= .150                 B-V= n.a.                   
                           ALBEDO= n.a.            STYP= n.a.                  
*******************************************************************************
 Date__(UT)__HR:MN     R.A._________(ICRF)_________DEC
******************************************************
$$SOE
 2018-Dec-06 12:04     06 18 38.405696 -11 38 04.62001
 2018-Dec-06 12:05     06 18 37.771825 -11 38 02.93268
 2018-Dec-06 12:06     06 18 37.138336 -11 38 01.23995
 2018-Dec-06 12:07     06 18 36.505239 -11 37 59.54184
 2018-Dec-06 12:08     06 18 35.872542 -11 37 57.83836
 2018-Dec-06 12:09     06 18 35.240253 -11 37 56.12950
 2018-Dec-06 12:10     06 18 34.608381 -11 37 54.41527
 2018-Dec-06 12:11     06 18 33.976935 -11 37 52.69568
 2018-Dec-06 12:12     06 18 33.345922 -11 37 50.97073
 2018-Dec-06 12:13     06 18 32.715352 -11 37 49.24044
 2018-Dec-06 12:14     06 18 32.085233 -11 37 47.50480
 2018-Dec-06 12:15     06 18 31.455573 -11 37 45.76383
 2018-Dec-06 12:16     06 18 30.826381 -11 37 44.01753
 2018-Dec-06 12:17     06 18 30.197665 -11 37 42.26591
 2018-Dec-06 12:18     06 18 29.569434 -11 37 40.50897
 2018-Dec-06 12:19     06 18 28.941696 -11 37 38.74672
 2018-Dec-06 12:20     06 18 28.314459 -11 37 36.97916
 2018-Dec-06 12:21     06 18 27.687732 -11 37 35.20632
 2018-Dec-06 12:22     06 18 27.061523 -11 37 33.42819
 2018-Dec-06 12:23     06 18 26.435841 -11 37 31.64477
 2018-Dec-06 12:24     06 18 25.810694 -11 37 29.85609
 2018-Dec-06 12:25     06 18 25.186091 -11 37 28.06213
 2018-Dec-06 12:26     06 18 24.562039 -11 37 26.26293
 2018-Dec-06 12:27     06 18 23.938547 -11 37 24.45847
 2018-Dec-06 12:28     06 18 23.315623 -11 37 22.64877
 2018-Dec-06 12:29     06 18 22.693275 -11 37 20.83383
 2018-Dec-06 12:30     06 18 22.071513 -11 37 19.01368
 2018-Dec-06 12:31     06 18 21.450344 -11 37 17.18830
 2018-Dec-06 12:32     06 18 20.829776 -11 37 15.35772
 2018-Dec-06 12:33     06 18 20.209818 -11 37 13.52193
 2018-Dec-06 12:34     06 18 19.590477 -11 37 11.68096
 2018-Dec-06 12:35     06 18 18.971763 -11 37 09.83480
 2018-Dec-06 12:36     06 18 18.353683 -11 37 07.98347
 2018-Dec-06 12:37     06 18 17.736245 -11 37 06.12697
 2018-Dec-06 12:38     06 18 17.119458 -11 37 04.26532
 2018-Dec-06 12:39     06 18 16.503330 -11 37 02.39852
 2018-Dec-06 12:40     06 18 15.887868 -11 37 00.52658
 2018-Dec-06 12:41     06 18 15.273082 -11 36 58.64951
 2018-Dec-06 12:42     06 18 14.658978 -11 36 56.76733
 2018-Dec-06 12:43     06 18 14.045566 -11 36 54.88004
 2018-Dec-06 12:44     06 18 13.432853 -11 36 52.98764
 2018-Dec-06 12:45     06 18 12.820848 -11 36 51.09016
 2018-Dec-06 12:46     06 18 12.209558 -11 36 49.18760
 2018-Dec-06 12:47     06 18 11.598991 -11 36 47.27996
 2018-Dec-06 12:48     06 18 10.989156 -11 36 45.36727
 2018-Dec-06 12:49     06 18 10.380061 -11 36 43.44953
 2018-Dec-06 12:50     06 18 09.771713 -11 36 41.52675
 2018-Dec-06 12:51     06 18 09.164120 -11 36 39.59894
 2018-Dec-06 12:52     06 18 08.557290 -11 36 37.66611
 2018-Dec-06 12:53     06 18 07.951232 -11 36 35.72828
 2018-Dec-06 12:54     06 18 07.345953 -11 36 33.78545
 2018-Dec-06 12:55     06 18 06.741461 -11 36 31.83763
 2018-Dec-06 12:56     06 18 06.137764 -11 36 29.88484
 2018-Dec-06 12:57     06 18 05.534870 -11 36 27.92708
 2018-Dec-06 12:58     06 18 04.932787 -11 36 25.96437
 2018-Dec-06 12:59     06 18 04.331522 -11 36 23.99672
 2018-Dec-06 13:00     06 18 03.731083 -11 36 22.02414
 2018-Dec-06 13:01     06 18 03.131479 -11 36 20.04664
 2018-Dec-06 13:02     06 18 02.532716 -11 36 18.06423
 2018-Dec-06 13:03     06 18 01.934803 -11 36 16.07693
 2018-Dec-06 13:04     06 18 01.337747 -11 36 14.08474
 2018-Dec-06 13:05     06 18 00.741557 -11 36 12.08768
 2018-Dec-06 13:06     06 18 00.146239 -11 36 10.08577
 2018-Dec-06 13:07     06 17 59.551801 -11 36 08.07900
 2018-Dec-06 13:08     06 17 58.958252 -11 36 06.06740
 2018-Dec-06 13:09     06 17 58.365599 -11 36 04.05097
 2018-Dec-06 13:10     06 17 57.773848 -11 36 02.02974
 2018-Dec-06 13:11     06 17 57.183009 -11 36 00.00370
 2018-Dec-06 13:12     06 17 56.593088 -11 35 57.97288
 2018-Dec-06 13:13     06 17 56.004094 -11 35 55.93729
 2018-Dec-06 13:14     06 17 55.416033 -11 35 53.89694
 2018-Dec-06 13:15     06 17 54.828913 -11 35 51.85183
 2018-Dec-06 13:16     06 17 54.242742 -11 35 49.80200
 2018-Dec-06 13:17     06 17 53.657527 -11 35 47.74744
 2018-Dec-06 13:18     06 17 53.073275 -11 35 45.68817
 2018-Dec-06 13:19     06 17 52.489995 -11 35 43.62421
 2018-Dec-06 13:20     06 17 51.907693 -11 35 41.55557
 2018-Dec-06 13:21     06 17 51.326377 -11 35 39.48225
 2018-Dec-06 13:22     06 17 50.746054 -11 35 37.40429
 2018-Dec-06 13:23     06 17 50.166731 -11 35 35.32168
 2018-Dec-06 13:24     06 17 49.588417 -11 35 33.23444
 2018-Dec-06 13:25     06 17 49.011117 -11 35 31.14259
 2018-Dec-06 13:26     06 17 48.434840 -11 35 29.04614
 2018-Dec-06 13:27     06 17 47.859593 -11 35 26.94511
 2018-Dec-06 13:28     06 17 47.285383 -11 35 24.83950
 2018-Dec-06 13:29     06 17 46.712217 -11 35 22.72933
 2018-Dec-06 13:30     06 17 46.140102 -11 35 20.61463
 2018-Dec-06 13:31     06 17 45.569046 -11 35 18.49539
 2018-Dec-06 13:32     06 17 44.999056 -11 35 16.37164
 2018-Dec-06 13:33     06 17 44.430138 -11 35 14.24339
 2018-Dec-06 13:34     06 17 43.862301 -11 35 12.11065
 2018-Dec-06 13:35     06 17 43.295550 -11 35 09.97344
 2018-Dec-06 13:36     06 17 42.729894 -11 35 07.83178
 2018-Dec-06 13:37     06 17 42.165338 -11 35 05.68567
 2018-Dec-06 13:38     06 17 41.601891 -11 35 03.53514
 2018-Dec-06 13:39     06 17 41.039559 -11 35 01.38020
 2018-Dec-06 13:40     06 17 40.478349 -11 34 59.22087
 2018-Dec-06 13:41     06 17 39.918268 -11 34 57.05715
 2018-Dec-06 13:42     06 17 39.359323 -11 34 54.88907
 2018-Dec-06 13:43     06 17 38.801521 -11 34 52.71664
 2018-Dec-06 13:44     06 17 38.244868 -11 34 50.53988
 2018-Dec-06 13:45     06 17 37.689372 -11 34 48.35880
 2018-Dec-06 13:46     06 17 37.135039 -11 34 46.17341
 2018-Dec-06 13:47     06 17 36.581877 -11 34 43.98374
 2018-Dec-06 13:48     06 17 36.029891 -11 34 41.78980
 2018-Dec-06 13:49     06 17 35.479089 -11 34 39.59160
 2018-Dec-06 13:50     06 17 34.929477 -11 34 37.38916
 2018-Dec-06 13:51     06 17 34.381063 -11 34 35.18251
 2018-Dec-06 13:52     06 17 33.833852 -11 34 32.97164
 2018-Dec-06 13:53     06 17 33.287851 -11 34 30.75658
 2018-Dec-06 13:54     06 17 32.743068 -11 34 28.53736
 2018-Dec-06 13:55     06 17 32.199508 -11 34 26.31397
 2018-Dec-06 13:56     06 17 31.657178 -11 34 24.08644
 2018-Dec-06 13:57     06 17 31.116085 -11 34 21.85479
 2018-Dec-06 13:58     06 17 30.576235 -11 34 19.61903
 2018-Dec-06 13:59     06 17 30.037635 -11 34 17.37918
 2018-Dec-06 14:00     06 17 29.500291 -11 34 15.13526
 2018-Dec-06 14:01     06 17 28.964209 -11 34 12.88728
 2018-Dec-06 14:02     06 17 28.429397 -11 34 10.63526
 2018-Dec-06 14:03     06 17 27.895860 -11 34 08.37922
 2018-Dec-06 14:04     06 17 27.363604 -11 34 06.11918
 2018-Dec-06 14:05     06 17 26.832637 -11 34 03.85514
 2018-Dec-06 14:06     06 17 26.302963 -11 34 01.58713
